[
    {
        "Altitude(m)": 617719.7394058757,
        "Argument of Periapsis(deg)": 0.0,
        "Eccentricity": 0.0,
        "Inclination(deg)": 60.0,
        "Latitude(deg)": -41.10255472811778,
        "Longitude(deg)": 160.09455005241966,
        "Mean Anomaly(deg)": 229.09090000000006,
        "RAAN(deg)": 50.0,
        "Satellite Name": "Test1 234",
        "Satellite Number": 234,
        "Semi-Major Axis(m)": 6980739.136638005,
        "Time(s)": 0
    },
    {
        "Altitude(m)": 617911.2756103622,
        "Argument of Periapsis(deg)": 0.00010418945913296404,
        "Eccentricity": 0.0,
        "Inclination(deg)": 60.0,
        "Latitude(deg)": -41.56574770075912,
        "Longitude(deg)": 160.5989543490123,
        "Mean Anomaly(deg)": 229.71100614546188,
        "RAAN(deg)": 49.99957995086026,
        "Satellite Name": "Test1 234",
        "Satellite Number": 234,
        "Semi-Major Axis(m)": 6980739.136638005,
        "Time(s)": 10
    }
]